     2.11           N: GPS NAV DATA                         RINEX VERSION / TYPE
teqc  2019Feb25     CORS-ADM Account    20260430 07:45:02UTCPGM / RUN BY / DATE
Linux 2.4.21-27.ELsmp|Opteron|gcc|Linux 64|=+               COMMENT
     2.10           N: GPS NAV DATA                         COMMENT
rvacn.e(1404.07)                        2026-04-30T07:27 UTCCOMMENT
This file contains the validated broadcast navigation       COMMENT
messages from the following files:                          COMMENT
aaaa1200.26n, abmf120g.26n, abpo120g.26n, albh120g.26n,     COMMENT
alic120g.26n, areq120g.26n, aruc120g.26n, baie120g.26n,     COMMENT
bake120g.26n, brew120g.26n, brst120g.26n, brux120g.26n,     COMMENT
bshm120g.26n, bucu120g.26n, cebr120g.26n, chpi120g.26n,     COMMENT
chum120g.26n, chur120g.26n, ckis120g.26n, coco120g.26n,     COMMENT
cro1120g.26n, darw120g.26n, dav1120g.26n, dgar120g.26n,     COMMENT
dlf1120g.26n, drao120g.26n, dubo120g.26n, ebre120g.26n,     COMMENT
fair120g.26n, falk120g.26n, flin120g.26n, glps120g.26n,     COMMENT
glsv120g.26n, gode120g.26n, guam120g.26n, harb120g.26n,     COMMENT
hers120g.26n, hlfx120g.26n, hob2120g.26n, hofn120g.26n,     COMMENT
holb120g.26n, hrao120g.26n, iisc120g.26n, iqal120g.26n,     COMMENT
ista120g.26n, joze120g.26n, jplm120g.26n, karr120g.26n,     COMMENT
kat1120g.26n, kiri120g.26n, kiru120g.26n, kokb120g.26n,     COMMENT
koug120g.26n, kour120g.26n, lmmf120g.26n, lpal120g.26n,     COMMENT
m0se120g.26n, mac1120g.26n, maju120g.26n, mal2120g.26n,     COMMENT
mar6120g.26n, mas1120g.26n, mat1120g.26n, mate120g.26n,     COMMENT
maw1120g.26n, mcm4120g.26n, mdo1120g.26n, medi120g.26n,     COMMENT
met3120g.26n, mkea120g.26n, mobs120g.26n, mro1120g.26n,     COMMENT
nain120g.26n, nano120g.26n, naur120g.26n, nico120g.26n,     COMMENT
nklg120g.26n, nlib120g.26n, nnor120g.26n, not1120g.26n,     COMMENT
nrc1120g.26n, onsa120g.26n, orid120g.26n, palm120g.26n,     COMMENT
pert120g.26n, picl120g.26n, pie1120g.26n, pimo120g.26n,     COMMENT
pohn120g.26n, prds120g.26n, ptvl120g.26n, qaq1120g.26n,     COMMENT
qiki120g.26n, reso120g.26n, reun120g.26n, reyk120g.26n,     COMMENT
riga120g.26n, sant120g.26n, sask120g.26n, sch2120g.26n,     COMMENT
scor120g.26n, solo120g.26n, stj3120g.26n, stjo120g.26n,     COMMENT
stpm120g.26n, suth120g.26n, suwn120g.26n, sydn120g.26n,     COMMENT
thtg120g.26n, thu2120g.26n, tid1120g.26n, tow2120g.26n,     COMMENT
tuva120g.26n, unbj120g.26n, usud120g.26n, vacs120g.26n,     COMMENT
vald120g.26n, vill120g.26n, vis0120g.26n, warn120g.26n,     COMMENT
whit120g.26n, will120g.26n, wsrt120g.26n, wtzr120g.26n,     COMMENT
xmis120g.26n, yar2120g.26n, yarr120g.26n, yebe120g.26n,     COMMENT
yell120g.26n, zim2120g.26n, zimm120g.26n                    COMMENT
    2.2350D-08  1.4900D-08 -1.1920D-07 -5.9600D-08          ION ALPHA
    1.2490D+05  6.5540D+04 -1.9660D+05  6.5540D+04          ION BETA
   -2.793967723850D-09-9.769962616700D-15   589824     2416 DELTA-UTC: A0,A1,T,W
                                                            END OF HEADER
 5 26  4 30  4  0  0.0-2.323868684471D-04-4.547473508865D-13 0.000000000000D+00
    1.090000000000D+02-3.496875000000D+01 3.774442934984D-09-2.562957481307D+00
   -2.035871148109D-06 5.523536936380D-03 1.155771315098D-05 5.153738235474D+03
    3.600000000000D+05 4.284083843231D-08 3.061401535114D+00-3.725290298462D-09
    9.808793219266D-01 1.607812500000D+02 1.426075644609D+00-7.491026317029D-09
    3.246563803842D-10 1.000000000000D+00 2.416000000000D+03 0.000000000000D+00
    2.800000000000D+00 0.000000000000D+00-1.071020960808D-08 1.090000000000D+02
    3.528180000000D+05 4.000000000000D+00
 7 26  4 30  4  0  0.0-1.790910027921D-04-4.433786671143D-12 0.000000000000D+00
    7.100000000000D+01-4.059375000000D+01 5.238432487454D-09 5.687472958192D-01
   -1.892447471619D-06 2.080405177549D-02 7.286667823792D-06 5.153601968765D+03
    3.600000000000D+05-2.756714820862D-07-1.083634823866D+00 3.725290298462D-08
    9.507016158069D-01 2.407187500000D+02-1.972983309989D+00-8.684290306978D-09
   -6.896715847326D-10 1.000000000000D+00 2.416000000000D+03 0.000000000000D+00
    2.000000000000D+00 0.000000000000D+00-1.071020960808D-08 7.100000000000D+01
    3.528180000000D+05 4.000000000000D+00
 8 26  4 30  4  0  0.0 4.523349925876D-04-7.162270776462D-12 0.000000000000D+00
    4.200000000000D+01 9.209375000000D+01 4.969492713604D-09-2.916266057135D+00
    4.664063453674D-06 1.160321920179D-02 3.026798367500D-06 5.153714797974D+03
    3.600000000000D+05-7.823109626770D-08 9.618320056495D-01-1.415610313416D-07
    9.428245612045D-01 3.119375000000D+02 5.387700153280D-01-8.424279476483D-09
    3.017982853957D-10 1.000000000000D+00 2.416000000000D+03 0.000000000000D+00
    2.000000000000D+00 0.000000000000D+00 4.656612873077D-09 4.200000000000D+01
    3.528200000000D+05 4.000000000000D+00
 9 26  4 30  4  0  0.0 7.551750168204D-04-3.751665644813D-12 0.000000000000D+00
    8.100000000000D+01 3.681250000000D+01 4.866631286156D-09-2.314065230517D+00
    2.060085535049D-06 3.383923671208D-03 5.830079317093D-06 5.153738307953D+03
    3.600000000000D+05-3.166496753693D-08-2.156911116874D+00 4.656612873077D-08
    9.652811071241D-01 2.713437500000D+02 2.046287443171D+00-8.121766875619D-09
    4.989493546719D-10 1.000000000000D+00 2.416000000000D+03 0.000000000000D+00
    2.000000000000D+00 0.000000000000D+00 4.656612873077D-10 8.100000000000D+01
    3.529380000000D+05 4.000000000000D+00
10 26  4 30  4  0  0.0-5.875877104700D-04 1.705302565824D-12 0.000000000000D+00
    5.000000000000D+01-3.203125000000D+01 3.554790928454D-09-8.759163321968D-01
   -1.464039087296D-06 1.094941562042D-02 1.248717308044D-05 5.153653806686D+03
    3.600000000000D+05 5.960464477539D-08 3.119368495133D+00 2.589076757431D-07
    9.939311010599D-01 1.560312500000D+02-2.258337870803D+00-7.551028816374D-09
    3.793015137162D-10 1.000000000000D+00 2.416000000000D+03 0.000000000000D+00
    2.000000000000D+00 0.000000000000D+00 2.328306436539D-09 5.000000000000D+01
    3.528180000000D+05 4.000000000000D+00
11 26  4 30  4  0  0.0-3.562844358385D-04 1.261923898710D-11 0.000000000000D+00
    2.050000000000D+02-9.928125000000D+01 4.344823836495D-09 2.584041969526D+00
   -5.023553967476D-06 2.238337532617D-03 5.317851901054D-06 5.153604339600D+03
    3.600000000000D+05-1.117587089539D-08 2.102592744765D+00-4.842877388000D-08
    9.630998128816D-01 2.768125000000D+02-2.341501798274D+00-8.137481815924D-09
   -2.182233755938D-10 1.000000000000D+00 2.416000000000D+03 0.000000000000D+00
    2.000000000000D+00 0.000000000000D+00-8.847564458847D-09 7.170000000000D+02
    3.528180000000D+05 4.000000000000D+00
12 26  4 30  4  0  0.0-6.078686565161D-04 1.136868377216D-13 0.000000000000D+00
    8.700000000000D+01 7.506250000000D+01 4.336252050875D-09-1.490340961426D-01
    3.872439265251D-06 8.853496401571D-03 1.097284257412D-05 5.153748992920D+03
    3.600000000000D+05-1.657754182816D-07 3.431913503830D-02 6.146728992462D-08
    9.594478661119D-01 1.691875000000D+02 1.575801961403D+00-8.014262397626D-09
   -7.500312418118D-11 1.000000000000D+00 2.416000000000D+03 0.000000000000D+00
    2.000000000000D+00 0.000000000000D+00-1.257285475731D-08 8.700000000000D+01
    3.528180000000D+05 4.000000000000D+00
14 26  4 30  4  0  0.0 7.449057884514D-04 1.136868377216D-12 0.000000000000D+00
    1.230000000000D+02 6.075000000000D+01 4.690552523197D-09-2.781076069724D-01
    2.982094883919D-06 7.031850400381D-03 1.079402863979D-05 5.153665441513D+03
    3.600000000000D+05 6.705522537231D-08-2.120653947463D-02 8.195638656616D-08
    9.427664233771D-01 1.622187500000D+02-2.718985433297D+00-8.171411800672D-09
   -2.185805333280D-10 1.000000000000D+00 2.416000000000D+03 0.000000000000D+00
    2.000000000000D+00 0.000000000000D+00-8.381903171539D-09 8.910000000000D+02
    3.529860000000D+05 4.000000000000D+00
15 26  4 30  4  0  0.0 4.074601456523D-04 3.296918293927D-12 0.000000000000D+00
    7.800000000000D+01 4.156250000000D+01 5.198787978958D-09 2.369931969751D+00
    1.953914761543D-06 1.669934042729D-02 6.332993507385D-06 5.153717163086D+03
    3.600000000000D+05 2.030283212662D-07-2.302365487587D+00-1.303851604462D-07
    9.433806353844D-01 2.462500000000D+02 1.512835325241D+00-8.069621846426D-09
    4.696624204679D-10 1.000000000000D+00 2.416000000000D+03 0.000000000000D+00
    2.000000000000D+00 0.000000000000D+00-1.117587089539D-08 7.800000000000D+01
    3.528180000000D+05 4.000000000000D+00
16 26  4 30  4  0  0.0 2.543046139181D-04 6.934897101019D-12 0.000000000000D+00
    9.000000000000D+01 8.984375000000D+01 4.171602335410D-09-1.865192303580D+00
    4.569068551064D-06 1.499914005399D-02 1.143477857113D-05 5.153684135437D+03
    3.600000000000D+05 2.197921276093D-07 5.118998909137D-02-1.285225152969D-07
    9.585569607050D-01 1.567812500000D+02 9.328770722917D-01-7.640318249923D-09
    3.035840740667D-11 1.000000000000D+00 2.416000000000D+03 0.000000000000D+00
    2.000000000000D+00 0.000000000000D+00-1.071020960808D-08 9.000000000000D+01
    3.528180000000D+05 4.000000000000D+00
17 26  4 30  4  0  0.0-1.244372688234D-04-8.526512829121D-12 0.000000000000D+00
    1.030000000000D+02 6.993750000000D+01 4.637693178536D-09-2.945399353854D+00
    3.671273589134D-06 1.259787217714D-02 2.460554242134D-06 5.153627458572D+03
    3.600000000000D+05 9.872019290924D-08 1.067454082399D+00 1.043081283569D-07
    9.583894785287D-01 3.328437500000D+02-1.111677365939D+00-8.158554122241D-09
    1.775073938955D-10 1.000000000000D+00 2.416000000000D+03 0.000000000000D+00
    2.000000000000D+00 0.000000000000D+00-1.117587089539D-08 1.030000000000D+02
    3.528480000000D+05 4.000000000000D+00
